{
  "norad_id": 58877,
  "name": "STARLINK-31326",
  "history": [
    {
      "epoch": "2026-03-28T19:29:09.867264",
      "apogee_km": 475.83709493672086,
      "perigee_km": 474.6129474124991,
      "latitude_deg": -45.92959639319226,
      "longitude_deg": 145.64429695997387,
      "semi_major_axis_km": 6853.36202117461,
      "eccentricity": 8.931e-05,
      "inclination_deg": 53.1597,
      "raan_deg": 233.9605,
      "arg_perigee_deg": 75.8947,
      "mean_anomaly_deg": 284.2153,
      "mean_motion_rev_day": 15.30196667
    }
  ]
}