{"fetched_at":"2026-03-29T16:36:15Z","count":15609,"tles":[{"name":"STARLINK-31326","line1":"1 58877U 24020B   26087.81191976  .00001045  00000+0  47411-4 0  9998","line2":"2 58877  53.1597 233.9605 0000893  75.8947 284.2153 15.30196667120995","category":"Starlink"}]}